NORAD_CAT_ID,OBJECT_NAME,OBJECT_TYPE,EPOCH,MEAN_MOTION,ECCENTRICITY,INCLINATION,RA_OF_ASC_NODE,ARG_OF_PERICENTER,MEAN_ANOMALY,BSTAR,MEAN_MOTION_DOT,MEAN_MOTION_DDOT,TLE_LINE0,TLE_LINE1,TLE_LINE2,SEMIMAJOR_AXIS,PERIOD,APOGEE,PERIGEE,DECAYED
52701.0,STARLINK-4003,PAYLOAD,2024-05-05 16:28:40,15.08823408,0.0001514,53.2183,275.3472,84.4484,275.668,-2.709e-05,-7.19e-06,0.0,0 STARLINK-4003,1 52701U 22053AX  24126.68658254 -.00000719  00000-0 -27090-4 0  9997,2 52701  53.2183 275.3472 0001514  84.4484 275.6680 15.08823408109713,6917.931,95.439,540.843,538.749,0.0
52701.0,STARLINK-4003,PAYLOAD,2024-05-06 13:08:40,15.08841554,0.0001437,53.2178,271.4797,103.69,256.4252,-3.2571e-05,-8.06e-06,0.0,0 STARLINK-4003,1 52701U 22053AX  24127.54769397 -.00000806  00000-0 -32571-4 0  9991,2 52701  53.2178 271.4797 0001437 103.6900 256.4252 15.08841554109416,6917.876,95.437,540.735,538.747,0.0
52701.0,STARLINK-4003,PAYLOAD,2024-05-06 14:44:03,15.08842586,0.0001461,53.2176,271.183,98.8056,261.3102,-1.911e-05,-5.92e-06,0.0,0 STARLINK-4003,1 52701U 22053AX  24127.61393321 -.00000592  00000-0 -19110-4 0  9995,2 52701  53.2176 271.1830 0001461  98.8056 261.3102 15.08842586109856,6917.872,95.437,540.748,538.727,0.0
52701.0,STARLINK-4003,PAYLOAD,2024-05-06 16:19:26,15.08844624,0.0001305,53.2179,270.8876,87.5538,272.5603,2.7454e-05,1.49e-06,0.0,0 STARLINK-4003,1 52701U 22053AX  24127.68017071  .00000149  00000-0  27454-4 0  9993,2 52701  53.2179 270.8876 0001305  87.5538 272.5603 15.08844624109868,6917.866,95.437,540.634,538.828,0.0
52701.0,STARLINK-4003,PAYLOAD,2024-05-07 12:59:28,15.08830246,0.0001274,53.2166,267.0204,88.9666,271.1472,0.00010641,1.406e-05,0.0,0 STARLINK-4003,1 52701U 22053AX  24128.54129911  .00001406  00000-0  10641-3 0  9992,2 52701  53.2166 267.0204 0001274  88.9666 271.1472 15.08830246109560,6917.91,95.438,540.657,538.894,0.0
52701.0,STARLINK-4003,PAYLOAD,2024-05-07 14:34:51,15.08830924,0.0001264,53.2166,266.7239,86.0458,274.0678,0.00011774,1.586e-05,0.0,0 STARLINK-4003,1 52701U 22053AX  24128.60753889  .00001586  00000-0  11774-3 0  9993,2 52701  53.2166 266.7239 0001264  86.0458 274.0678 15.08830924110005,6917.908,95.438,540.648,538.899,0.0
52701.0,STARLINK-4003,PAYLOAD,2024-05-07 16:10:14,15.08835781,0.000122,53.2171,266.4248,93.3417,266.7715,0.00011371,1.522e-05,0.0,0 STARLINK-4003,1 52701U 22053AX  24128.67377557  .00001522  00000-0  11371-3 0  9997,2 52701  53.2171 266.4248 0001220  93.3417 266.7715 15.08835781110013,6917.893,95.438,540.602,538.914,0.0
52701.0,STARLINK-4003,PAYLOAD,2024-05-08 14:25:39,15.08831605,0.0001414,53.2171,262.2636,90.8186,269.2969,-2.8077e-05,-7.35e-06,0.0,0 STARLINK-4003,1 52701U 22053AX  24129.60114793 -.00000735  00000-0 -28077-4 0  9991,2 52701  53.2171 262.2636 0001414  90.8186 269.2969 15.08831605110153,6917.906,95.438,540.749,538.793,0.0
52701.0,STARLINK-4003,PAYLOAD,2024-05-08 16:01:02,15.0883283,0.0001326,53.2176,261.9682,91.2725,268.8419,-4.3517e-08,-2.89e-06,0.0,0 STARLINK-4003,1 52701U 22053AX  24129.66738679 -.00000289  00000-0 -43517-7 0  9995,2 52701  53.2176 261.9682 0001326  91.2725 268.8419 15.08832830109739,6917.902,95.438,540.685,538.85,0.0
52701.0,STARLINK-4003,PAYLOAD,2024-05-09 12:41:02,15.08843858,0.0001396,53.2174,258.1017,100.2959,259.819,7.9072e-05,9.71e-06,0.0,0 STARLINK-4003,1 52701U 22053AX  24130.52849945  .00000971  00000-0  79072-4 0  9999,2 52701  53.2174 258.1017 0001396 100.2959 259.8190 15.08843858109866,6917.869,95.437,540.699,538.768,0.0
52701.0,STARLINK-4003,PAYLOAD,2024-05-09 14:16:25,15.0884473,0.0001411,53.2176,257.8045,100.5173,259.5978,8.7605e-05,1.107e-05,0.0,0 STARLINK-4003,1 52701U 22053AX  24130.59473879  .00001107  00000-0  87605-4 0  9998,2 52701  53.2176 257.8045 0001411 100.5173 259.5978 15.08844730110306,6917.866,95.437,540.707,538.755,0.0
52701.0,STARLINK-4003,PAYLOAD,2024-05-09 15:51:48,15.08847119,0.0001387,53.2177,257.5071,101.6433,258.4715,0.000124,1.686e-05,0.0,0 STARLINK-4003,1 52701U 22053AX  24130.66097625  .00001686  00000-0  12400-3 0  9999,2 52701  53.2177 257.5071 0001387 101.6433 258.4715 15.08847119110318,6917.859,95.437,540.683,538.764,0.0
52701.0,STARLINK-4003,PAYLOAD,2024-05-10 12:31:50,15.08829334,0.0001858,53.2176,253.6414,97.7514,262.3689,8.4218e-05,1.052e-05,0.0,0 STARLINK-4003,1 52701U 22053AX  24131.52211469  .00001052  00000-0  84218-4 0  9993,2 52701  53.2176 253.6414 0001858  97.7514 262.3689 15.08829334110013,6917.913,95.438,541.063,538.493,0.0
52701.0,STARLINK-4003,PAYLOAD,2024-05-10 14:07:14,15.08828476,0.0001518,53.2181,253.344,100.508,259.6083,2.2774e-05,7.4e-07,0.0,0 STARLINK-4003,1 52701U 22053AX  24131.58835664  .00000074  00000-0  22774-4 0  9990,2 52701  53.2181 253.3440 0001518 100.5080 259.6083 15.08828476110450,6917.916,95.438,540.831,538.73,0.0
52701.0,STARLINK-4003,PAYLOAD,2024-05-10 17:17:59,15.0884054,0.0001325,53.2173,252.7478,97.7855,262.3288,0.00012153,1.647e-05,0.0,0 STARLINK-4003,1 52701U 22053AX  24131.72082703  .00001647  00000-0  12153-3 0  9990,2 52701  53.2173 252.7478 0001325  97.7855 262.3288 15.08840540110047,6917.879,95.438,540.66,538.827,0.0
52701.0,STARLINK-4003,PAYLOAD,2024-05-11 13:57:57,15.08874519,0.0001276,53.2181,248.8795,96.7396,263.3741,0.00045562,6.977e-05,0.0,0 STARLINK-4003,1 52701U 22053AX  24132.58192030  .00006977  00000-0  45562-3 0  9991,2 52701  53.2181 248.8795 0001276  96.7396 263.3741 15.08874519110170,6917.775,95.435,540.523,538.757,0.0
52701.0,STARLINK-4003,PAYLOAD,2024-05-11 15:33:19,15.08900048,0.0001348,53.2172,248.5836,84.5158,275.5988,0.00076571,0.00011939,0.0,0 STARLINK-4003,1 52701U 22053AX  24132.64814784  .00011939  00000-0  76571-3 0  9993,2 52701  53.2172 248.5836 0001348  84.5158 275.5988 15.08900048110180,6917.697,95.434,540.494,538.629,0.0
52701.0,STARLINK-4003,PAYLOAD,2024-05-12 01:05:41,15.08826831,0.0001622,53.2171,246.7996,92.6497,267.4681,-0.00033389,-5.596e-05,0.0,0 STARLINK-4003,1 52701U 22053AX  24133.04562059 -.00005596  00000-0 -33389-3 0  9997,2 52701  53.2171 246.7996 0001622  92.6497 267.4681 15.08826831110241,6917.921,95.438,540.908,538.664,0.0
52701.0,STARLINK-4003,PAYLOAD,2024-05-12 13:48:48,15.08803417,0.0001312,53.2184,244.4208,93.1251,266.9892,-0.00044123,-7.296e-05,0.0,0 STARLINK-4003,1 52701U 22053AX  24133.57556660 -.00007296  00000-0 -44123-3 0  9993,2 52701  53.2184 244.4208 0001312  93.1251 266.9892 15.08803417110328,6917.992,95.44,540.765,538.95,0.0
52701.0,STARLINK-4003,PAYLOAD,2024-05-13 00:56:30,15.08823617,0.0001462,53.2161,242.3397,91.0657,269.0502,3.3088e-06,-2.35e-06,0.0,0 STARLINK-4003,1 52701U 22053AX  24134.03924440 -.00000235  00000-0  33088-5 0  9995,2 52701  53.2161 242.3397 0001462  91.0657 269.0502 15.08823617110395,6917.93,95.439,540.807,538.784,0.0
52701.0,STARLINK-4003,PAYLOAD,2024-05-13 13:39:35,15.08838264,0.0001482,53.2169,239.9605,90.465,269.6512,0.00031031,4.654e-05,0.0,0 STARLINK-4003,1 52701U 22053AX  24134.56916488  .00004654  00000-0  31031-3 0  9998,2 52701  53.2169 239.9605 0001482  90.4650 269.6512 15.08838264110475,6917.886,95.438,540.776,538.725,0.0
52701.0,STARLINK-4003,PAYLOAD,2024-05-14 11:55:01,15.08829425,0.0001118,53.2157,235.7968,103.7316,256.3801,0.0015948,0.00025177,0.0,0 STARLINK-4003,1 52701U 22053AX  24135.49654205  .00025177  00000-0  15948-2 0  9998,2 52701  53.2157 235.7968 0001118 103.7316 256.3801 15.08829425110610,6917.913,95.438,540.551,539.004,0.0
52701.0,STARLINK-4003,PAYLOAD,2024-05-14 13:30:22,15.08855844,0.0001346,53.2147,235.5008,82.8721,277.2424,0.00094669,0.00014817,0.0,0 STARLINK-4003,1 52701U 22053AX  24135.56276617  .00014817  00000-0  94669-3 0  9990,2 52701  53.2147 235.5008 0001346  82.8721 277.2424 15.08855844111058,6917.832,95.437,540.628,538.766,0.0
52701.0,STARLINK-4003,PAYLOAD,2024-05-15 11:45:46,15.08847613,0.000166,53.2168,231.3381,95.2335,264.8847,-9.4435e-05,-1.791e-05,0.0,0 STARLINK-4003,1 52701U 22053AX  24136.49011720 -.00001791  00000-0 -94435-4 0  9996,2 52701  53.2168 231.3381 0001660  95.2335 264.8847 15.08847613110760,6917.857,95.437,540.87,538.574,0.0
52701.0,STARLINK-4003,PAYLOAD,2024-05-16 13:11:55,15.08865162,0.000184,53.2162,226.5818,105.9078,254.2117,0.00071036,0.00011043,0.0,0 STARLINK-4003,1 52701U 22053AX  24137.54994794  .00011043  00000-0  71036-3 0  9994,2 52701  53.2162 226.5818 0001840 105.9078 254.2117 15.08865162110928,6917.803,95.436,540.941,538.396,0.0
52701.0,STARLINK-4003,PAYLOAD,2024-05-16 16:22:41,15.08877078,0.0001378,53.2154,225.9822,90.5433,269.5717,0.0010504,0.00016486,0.0,0 STARLINK-4003,1 52701U 22053AX  24137.68242233  .00016486  00000-0  10504-2 0  9991,2 52701  53.2154 225.9822 0001378  90.5433 269.5717 15.08877078111371,6917.767,95.435,540.585,538.679,0.0
52701.0,STARLINK-4003,PAYLOAD,2024-05-16 22:44:13,15.08865249,0.0001736,53.2158,224.7915,86.8185,273.3006,0.00044773,6.85e-05,0.0,0 STARLINK-4003,1 52701U 22053AX  24137.94738162  .00006850  00000-0  44773-3 0  9991,2 52701  53.2158 224.7915 0001736  86.8185 273.3006 15.08865249110982,6917.803,95.436,540.869,538.467,0.0
52701.0,STARLINK-4003,PAYLOAD,2024-05-17 11:27:18,15.08857779,0.0001892,53.2181,222.415,90.2176,269.9033,9.2385e-05,1.183e-05,0.0,0 STARLINK-4003,1 52701U 22053AX  24138.47729763  .00001183  00000-0  92385-4 0  9994,2 52701  53.2181 222.4150 0001892  90.2176 269.9033 15.08857779111066,6917.826,95.436,541.0,538.382,0.0
52701.0,STARLINK-4003,PAYLOAD,2024-05-17 22:35:00,15.08849567,0.0001568,53.2163,220.3323,90.0777,270.0394,-5.5297e-05,-1.168e-05,0.0,0 STARLINK-4003,1 52701U 22053AX  24138.94097572 -.00001168  00000-0 -55297-4 0  9998,2 52701  53.2163 220.3323 0001568  90.0777 270.0394 15.08849567111564,6917.851,95.437,540.801,538.631,0.0
52701.0,STARLINK-4003,PAYLOAD,2024-05-18 12:53:29,15.08834707,0.0001444,53.2157,217.6563,95.2143,264.9013,-0.00022487,-3.864e-05,0.0,0 STARLINK-4003,1 52701U 22053AX  24139.53714169 -.00003864  00000-0 -22487-3 0  9991,2 52701  53.2157 217.6563 0001444  95.2143 264.9013 15.08834707111222,6917.897,95.438,540.761,538.763,0.0
